{"type": "FeatureCollection", "features": [ {"type": "Feature", "properties": {"norad_id": 30570, "name": "FENGYUN 1C DEB", "group": "fengyun-1c-debris", "lat": 13.172088386025322, "lon": 30.525116469530342, "alt_km": 870.0320621934043, "timestamp": "2025-12-26T09:30:53.915426+00:00", "meta": {"OBJECT_NAME": "FENGYUN 1C DEB", "OBJECT_ID": "1999-025ALL", "EPOCH": "2025-12-25T15:20:08.660832", "MEAN_MOTION": 14.1429114, "ECCENTRICITY": 0.0035853, "INCLINATION": 98.7139, "RA_OF_ASC_NODE": 31.8433, "ARG_OF_PERICENTER": 175.219, "MEAN_ANOMALY": 303.9139, "EPHEMERIS_TYPE": 0, "CLASSIFICATION_TYPE": "U", "NORAD_CAT_ID": 30570, "ELEMENT_SET_NO": 999, "REV_AT_EPOCH": 97180, "BSTAR": 0.0004539, "MEAN_MOTION_DOT": 8.29e-06, "MEAN_MOTION_DDOT": 0}, "tle": {"line1": "1 30570U 99025ALL 25359.63898913  .00000829  00000+0  45390-3 0  9993", "line2": "2 30570  98.7139  31.8433 0035853 175.2190 303.9139 14.14291140971805"}}, "geometry": {"type": "Point", "coordinates": [30.525116469530342, 13.172088386025322]}}, {"type": "Feature", "properties": {"norad_id": 30571, "name": "FENGYUN 1C DEB", "group": "fengyun-1c-debris", "lat": 45.13372919876189, "lon": -144.89848565134645, "alt_km": 845.3620565701494, "timestamp": "2025-12-26T09:30:53.915436+00:00", "meta": {"OBJECT_NAME": "FENGYUN 1C DEB", "OBJECT_ID": "1999-025ALM", "EPOCH": "2025-12-25T23:02:08.022048", "MEAN_MOTION": 14.10707758, "ECCENTRICITY": 0.00213366, "INCLINATION": 98.7304, "RA_OF_ASC_NODE": 25.7965, "ARG_OF_PERICENTER": 195.711, "MEAN_ANOMALY": 242.3409, "EPHEMERIS_TYPE": 0, "CLASSIFICATION_TYPE": "U", "NORAD_CAT_ID": 30571, "ELEMENT_SET_NO": 999, "REV_AT_EPOCH": 97073, "BSTAR": 0.00027049098, "MEAN_MOTION_DOT": 4.42e-06, "MEAN_MOTION_DDOT": 0}, "tle": {"line1": "1 30571U 99025ALM 25359.95981507  .00000442  00000+0  27049-3 0  9993", "line2": "2 30571  98.7304  25.7965 0021336 195.7110 242.3409 14.10707758970732"}}, "geometry": {"type": "Point", "coordinates": [-144.89848565134645, 45.13372919876189]}}, {"type": "Feature", "properties": {"norad_id": 30572, "name": "FENGYUN 1C DEB", "group": "fengyun-1c-debris", "lat": -45.58554259162169, "lon": 38.71856907718743, "alt_km": 862.189832293885, "timestamp": "2025-12-26T09:30:53.915446+00:00", "meta": {"OBJECT_NAME": "FENGYUN 1C DEB", "OBJECT_ID": "1999-025ALN", "EPOCH": "2025-12-25T23:50:18.351744", "MEAN_MOTION": 14.08933221, "ECCENTRICITY": 0.00210907, "INCLINATION": 98.7707, "RA_OF_ASC_NODE": 29.2604, "ARG_OF_PERICENTER": 254.3634, "MEAN_ANOMALY": 175.3276, "EPHEMERIS_TYPE": 0, "CLASSIFICATION_TYPE": "U", "NORAD_CAT_ID": 30572, "ELEMENT_SET_NO": 999, "REV_AT_EPOCH": 96948, "BSTAR": 0.00017306254, "MEAN_MOTION_DOT": 2.57e-06, "MEAN_MOTION_DDOT": 0}, "tle": {"line1": "1 30572U 99025ALN 25359.99326796  .00000257  00000+0  17306-3 0  9990", "line2": "2 30572  98.7707  29.2604 0021090 254.3634 175.3276 14.08933221969489"}}, "geometry": {"type": "Point", "coordinates": [38.71856907718743, -45.58554259162169]}}, {"type": "Feature", "properties": {"norad_id": 30573, "name": "FENGYUN 1C DEB", "group": "fengyun-1c-debris", "lat": 53.14116038343627, "lon": -128.91155577209022, "alt_km": 861.9851119560817, "timestamp": "2025-12-26T09:30:53.915483+00:00", "meta": {"OBJECT_NAME": "FENGYUN 1C DEB", "OBJECT_ID": "1999-025ALP", "EPOCH": "2025-12-25T16:32:24.980064", "MEAN_MOTION": 14.13925553, "ECCENTRICITY": 0.00889647, "INCLINATION": 99.2258, "RA_OF_ASC_NODE": 37.838, "ARG_OF_PERICENTER": 237.3886, "MEAN_ANOMALY": 251.1889, "EPHEMERIS_TYPE": 0, "CLASSIFICATION_TYPE": "U", "NORAD_CAT_ID": 30573, "ELEMENT_SET_NO": 999, "REV_AT_EPOCH": 96380, "BSTAR": 0.0018255202, "MEAN_MOTION_DOT": 3.551e-05, "MEAN_MOTION_DDOT": 0}, "tle": {"line1": "1 30573U 99025ALP 25359.68917801  .00003551  00000+0  18255-2 0  9993", "line2": "2 30573  99.2258  37.8380 0088964 237.3886 251.1889 14.13925553963804"}}, "geometry": {"type": "Point", "coordinates": [-128.91155577209022, 53.14116038343627]}}, {"type": "Feature", "properties": {"norad_id": 30574, "name": "FENGYUN 1C DEB", "group": "fengyun-1c-debris", "lat": 74.85250104321362, "lon": 126.46238165952717, "alt_km": 1059.552014422421, "timestamp": "2025-12-26T09:30:53.915505+00:00", "meta": {"OBJECT_NAME": "FENGYUN 1C DEB", "OBJECT_ID": "1999-025ALQ", "EPOCH": "2025-12-25T10:28:43.135104", "MEAN_MOTION": 13.77586034, "ECCENTRICITY": 0.0220298, "INCLINATION": 99.3007, "RA_OF_ASC_NODE": 162.7748, "ARG_OF_PERICENTER": 313.926, "MEAN_ANOMALY": 44.3892, "EPHEMERIS_TYPE": 0, "CLASSIFICATION_TYPE": "U", "NORAD_CAT_ID": 30574, "ELEMENT_SET_NO": 999, "REV_AT_EPOCH": 93943, "BSTAR": 0.0023552, "MEAN_MOTION_DOT": 2.765e-05, "MEAN_MOTION_DDOT": 0}, "tle": {"line1": "1 30574U 99025ALQ 25359.43661036  .00002765  00000+0  23552-2 0  9995", "line2": "2 30574  99.3007 162.7748 0220298 313.9260  44.3892 13.77586034939433"}}, "geometry": {"type": "Point", "coordinates": [126.46238165952717, 74.85250104321362]}}, {"type": "Feature", "properties": {"norad_id": 30575, "name": "FENGYUN 1C DEB", "group": "fengyun-1c-debris", "lat": 42.83157055101802, "lon": 83.66530369706442, "alt_km": 789.1662866333882, "timestamp": "2025-12-26T09:30:53.915517+00:00", "meta": {"OBJECT_NAME": "FENGYUN 1C DEB", "OBJECT_ID": "1999-025ALR", "EPOCH": "2025-12-25T11:55:40.153728", "MEAN_MOTION": 14.40140617, "ECCENTRICITY": 0.0054688, "INCLINATION": 99.1689, "RA_OF_ASC_NODE": 91.3139, "ARG_OF_PERICENTER": 199.2493, "MEAN_ANOMALY": 223.989, "EPHEMERIS_TYPE": 0, "CLASSIFICATION_TYPE": "U", "NORAD_CAT_ID": 30575, "ELEMENT_SET_NO": 999, "REV_AT_EPOCH": 98401, "BSTAR": 0.0010743, "MEAN_MOTION_DOT": 3.405e-05, "MEAN_MOTION_DDOT": 0}, "tle": {"line1": "1 30575U 99025ALR 25359.49699252  .00003405  00000+0  10743-2 0  9993", "line2": "2 30575  99.1689  91.3139 0054688 199.2493 223.9890 14.40140617984011"}}, "geometry": {"type": "Point", "coordinates": [83.66530369706442, 42.83157055101802]}}, {"type": "Feature", "properties": {"norad_id": 30577, "name": "FENGYUN 1C DEB", "group": "fengyun-1c-debris", "lat": 64.93644932662288, "lon": -126.72020729634855, "alt_km": 862.1513494225319, "timestamp": "2025-12-26T09:30:53.915528+00:00", "meta": {"OBJECT_NAME": "FENGYUN 1C DEB", "OBJECT_ID": "1999-025ALT", "EPOCH": "2025-12-25T00:47:43.821312", "MEAN_MOTION": 14.11165426, "ECCENTRICITY": 0.00289154, "INCLINATION": 98.7693, "RA_OF_ASC_NODE": 32.676, "ARG_OF_PERICENTER": 246.4427, "MEAN_ANOMALY": 145.3129, "EPHEMERIS_TYPE": 0, "CLASSIFICATION_TYPE": "U", "NORAD_CAT_ID": 30577, "ELEMENT_SET_NO": 999, "REV_AT_EPOCH": 96958, "BSTAR": 0.00049813159, "MEAN_MOTION_DOT": 8.58e-06, "MEAN_MOTION_DDOT": 0}, "tle": {"line1": "1 30577U 99025ALT 25359.03314608  .00000858  00000+0  49813-3 0  9994", "line2": "2 30577  98.7693  32.6760 0028915 246.4427 145.3129 14.11165426969587"}}, "geometry": {"type": "Point", "coordinates": [-126.72020729634855, 64.93644932662288]}}, {"type": "Feature", "properties": {"norad_id": 30579, "name": "FENGYUN 1C DEB", "group": "fengyun-1c-debris", "lat": 29.049268686899133, "lon": 19.737002225286087, "alt_km": 842.7184445321764, "timestamp": "2025-12-26T09:30:53.915538+00:00", "meta": {"OBJECT_NAME": "FENGYUN 1C DEB", "OBJECT_ID": "1999-025ALV", "EPOCH": "2025-12-25T01:10:19.543584", "MEAN_MOTION": 14.05263239, "ECCENTRICITY": 0.00536242, "INCLINATION": 98.8057, "RA_OF_ASC_NODE": 23.3676, "ARG_OF_PERICENTER": 69.5472, "MEAN_ANOMALY": 346.5786, "EPHEMERIS_TYPE": 0, "CLASSIFICATION_TYPE": "U", "NORAD_CAT_ID": 30579, "ELEMENT_SET_NO": 999, "REV_AT_EPOCH": 96630, "BSTAR": 0.00017446714, "MEAN_MOTION_DOT": 2.43e-06, "MEAN_MOTION_DDOT": 0}, "tle": {"line1": "1 30579U 99025ALV 25359.04883731  .00000243  00000+0  17447-3 0  9991", "line2": "2 30579  98.8057  23.3676 0053624  69.5472 346.5786 14.05263239966301"}}, "geometry": {"type": "Point", "coordinates": [19.737002225286087, 29.049268686899133]}}, {"type": "Feature", "properties": {"norad_id": 30594, "name": "FENGYUN 1C DEB", "group": "fengyun-1c-debris", "lat": 1.5939362193278064, "lon": 37.248942475413266, "alt_km": 856.8622172777059, "timestamp": "2025-12-26T09:30:53.915549+00:00", "meta": {"OBJECT_NAME": "FENGYUN 1C DEB", "OBJECT_ID": "1999-025ALZ", "EPOCH": "2025-12-25T14:01:09.880032", "MEAN_MOTION": 14.1735251, "ECCENTRICITY": 0.0193054, "INCLINATION": 99.1506, "RA_OF_ASC_NODE": 216.1555, "ARG_OF_PERICENTER": 279.8589, "MEAN_ANOMALY": 78.0839, "EPHEMERIS_TYPE": 0, "CLASSIFICATION_TYPE": "U", "NORAD_CAT_ID": 30594, "ELEMENT_SET_NO": 999, "REV_AT_EPOCH": 97761, "BSTAR": 0.0002001, "MEAN_MOTION_DOT": 4.35e-06, "MEAN_MOTION_DDOT": 0}, "tle": {"line1": "1 30594U 99025ALZ 25359.58414213  .00000435  00000+0  20010-3 0  9995", "line2": "2 30594  99.1506 216.1555 0193054 279.8589  78.0839 14.17352510977612"}}, "geometry": {"type": "Point", "coordinates": [37.248942475413266, 1.5939362193278064]}}, {"type": "Feature", "properties": {"norad_id": 30596, "name": "FENGYUN 1C DEB", "group": "fengyun-1c-debris", "lat": -79.57908502426865, "lon": 124.18238849054704, "alt_km": 613.7418103209839, "timestamp": "2025-12-26T09:30:53.915559+00:00", "meta": {"OBJECT_NAME": "FENGYUN 1C DEB", "OBJECT_ID": "1999-025AMB", "EPOCH": "2025-12-24T23:04:02.212608", "MEAN_MOTION": 14.34388847, "ECCENTRICITY": 0.02471633, "INCLINATION": 98.4138, "RA_OF_ASC_NODE": 356.3727, "ARG_OF_PERICENTER": 252.5052, "MEAN_ANOMALY": 163.1278, "EPHEMERIS_TYPE": 0, "CLASSIFICATION_TYPE": "U", "NORAD_CAT_ID": 30596, "ELEMENT_SET_NO": 999, "REV_AT_EPOCH": 98736, "BSTAR": 0.00025002681, "MEAN_MOTION_DOT": 9.38e-06, "MEAN_MOTION_DDOT": 0}, "tle": {"line1": "1 30596U 99025AMB 25358.96113672  .00000938  00000+0  25003-3 0  9998", "line2": "2 30596  98.4138 356.3727 0247163 252.5052 163.1278 14.34388847987366"}}, "geometry": {"type": "Point", "coordinates": [124.18238849054704, -79.57908502426865]}}]}